NORAD_CAT_ID,OBJECT_NAME,OBJECT_TYPE,EPOCH,MEAN_MOTION,ECCENTRICITY,INCLINATION,RA_OF_ASC_NODE,ARG_OF_PERICENTER,MEAN_ANOMALY,BSTAR,MEAN_MOTION_DOT,MEAN_MOTION_DDOT,TLE_LINE0,TLE_LINE1,TLE_LINE2,SEMIMAJOR_AXIS,PERIOD,APOGEE,PERIGEE,DECAYED
51756.0,STARLINK-3513,PAYLOAD,2023-09-14 18:30:37,15.08833983,0.0001225,53.2189,60.4363,79.964,280.149,-3.1102e-05,-7.83e-06,0.0,0 STARLINK-3513,1 51756U 22016AU  23257.77127202 -.00000783  00000-0 -31102-4 0  9993,2 51756  53.2189  60.4363 0001225  79.9640 280.1490 15.08833983 86793,6917.899,95.438,540.611,538.916,0.0
51756.0,STARLINK-3513,PAYLOAD,2023-09-15 10:24:29,15.08836156,0.0001151,53.2194,57.46,83.6223,276.49,5.1751e-05,5.36e-06,0.0,0 STARLINK-3513,1 51756U 22016AU  23258.43366998  .00000536  00000-0  51751-4 0  9990,2 51756  53.2194  57.4600 0001151  83.6223 276.4900 15.08836156 86896,6917.892,95.438,540.553,538.961,0.0
51756.0,STARLINK-3513,PAYLOAD,2023-09-15 18:21:23,15.08851421,0.0001335,53.2189,55.9745,92.8975,267.217,9.2324e-05,1.182e-05,0.0,0 STARLINK-3513,1 51756U 22016AU  23258.76485879  .00001182  00000-0  92324-4 0  9995,2 51756  53.2189  55.9745 0001335  92.8975 267.2170 15.08851421 88018,6917.845,95.437,540.634,538.787,0.0
51756.0,STARLINK-3513,PAYLOAD,2023-09-16 10:15:16,15.08833353,0.0001412,53.2182,53.0029,64.0909,296.0229,0.00016863,2.396e-05,0.0,0 STARLINK-3513,1 51756U 22016AU  23259.42726915  .00002396  00000-0  16863-3 0  9999,2 51756  53.2182  53.0029 0001412  64.0909 296.0229 15.08833353 88119,6917.901,95.438,540.743,538.789,0.0
51756.0,STARLINK-3513,PAYLOAD,2023-09-16 18:12:11,15.08838901,0.0001171,53.2186,51.5144,83.4885,276.6241,0.00015723,2.215e-05,0.0,0 STARLINK-3513,1 51756U 22016AU  23259.75846688  .00002215  00000-0  15723-3 0  9999,2 51756  53.2186  51.5144 0001171  83.4885 276.6241 15.08838901 87092,6917.884,95.438,540.559,538.939,0.0
51756.0,STARLINK-3513,PAYLOAD,2023-09-17 16:27:35,15.08850552,0.0001172,53.2188,47.3506,85.3985,274.7141,5.07e-05,5.19e-06,0.0,0 STARLINK-3513,1 51756U 22016AU  23260.68582212  .00000519  00000-0  50700-4 0  9993,2 51756  53.2188  47.3506 0001172  85.3985 274.7141 15.08850552 88301,6917.848,95.437,540.524,538.902,0.0
51756.0,STARLINK-3513,PAYLOAD,2023-09-18 13:07:36,15.08837406,0.0001316,53.2194,43.4839,95.2357,264.8785,3.582e-05,2.82e-06,0.0,0 STARLINK-3513,1 51756U 22016AU  23261.54695010  .00000282  00000-0  35820-4 0  9993,2 51756  53.2194  43.4839 0001316  95.2357 264.8785 15.08837406 87369,6917.888,95.438,540.664,538.843,0.0
51756.0,STARLINK-3513,PAYLOAD,2023-09-18 16:18:22,15.08844279,0.0001293,53.2192,42.8895,96.7299,263.3841,5.0603e-05,5.18e-06,0.0,0 STARLINK-3513,1 51756U 22016AU  23261.67942535  .00000518  00000-0  50603-4 0  9992,2 51756  53.2192  42.8895 0001293  96.7299 263.3841 15.08844279 88451,6917.867,95.437,540.627,538.838,0.0
51756.0,STARLINK-3513,PAYLOAD,2023-09-18 17:53:45,15.08845822,0.0001336,53.2192,42.5921,92.2168,267.8977,6.3117e-05,7.17e-06,0.0,0 STARLINK-3513,1 51756U 22016AU  23261.74566442  .00000717  00000-0  63117-4 0  9994,2 51756  53.2192  42.5921 0001336  92.2168 267.8977 15.08845822 87398,6917.863,95.437,540.652,538.803,0.0
51756.0,STARLINK-3513,PAYLOAD,2023-09-19 17:44:31,15.08858691,0.0001267,53.218,38.133,89.9562,270.1575,0.00024114,3.554e-05,0.0,0 STARLINK-3513,1 51756U 22016AU  23262.73925514  .00003554  00000-0  24114-3 0  9998,2 51756  53.2180  38.1330 0001267  89.9562 270.1575 15.08858691 88619,6917.823,95.436,540.565,538.812,0.0
51756.0,STARLINK-3513,PAYLOAD,2023-09-20 04:52:14,15.08833777,0.0001045,53.2179,36.0488,80.2823,279.8287,-2.6423e-05,-7.08e-06,0.0,0 STARLINK-3513,1 51756U 22016AU  23263.20294836 -.00000708  00000-0 -26423-4 0  9993,2 51756  53.2179  36.0488 0001045  80.2823 279.8287 15.08833777 88687,6917.899,95.438,540.487,539.041,0.0
51756.0,STARLINK-3513,PAYLOAD,2023-09-20 12:49:11,15.08817629,0.0001189,53.2177,34.5651,68.7335,291.3784,-0.00030808,-5.184e-05,0.0,0 STARLINK-3513,1 51756U 22016AU  23263.53416014 -.00005184  00000-0 -30808-3 0  9997,2 51756  53.2177  34.5651 0001189  68.7335 291.3784 15.08817629 88733,6917.949,95.439,540.636,538.991,0.0
51756.0,STARLINK-3513,PAYLOAD,2023-09-20 14:24:34,15.0881839,0.0001249,53.2181,34.268,78.7235,281.3897,-0.00026886,-4.562e-05,0.0,0 STARLINK-3513,1 51756U 22016AU  23263.60040073 -.00004562  00000-0 -26886-3 0  9993,2 51756  53.2181  34.2680 0001249  78.7235 281.3897 15.08818390 87676,6917.946,95.439,540.675,538.947,0.0
51756.0,STARLINK-3513,PAYLOAD,2023-09-20 15:59:57,15.08821156,0.0001245,53.2182,33.9713,79.6386,280.4747,-0.00022051,-3.794e-05,0.0,0 STARLINK-3513,1 51756U 22016AU  23263.66663994 -.00003794  00000-0 -22051-3 0  9998,2 51756  53.2182  33.9713 0001245  79.6386 280.4747 15.08821156 87682,6917.938,95.439,540.664,538.942,0.0
51756.0,STARLINK-3513,PAYLOAD,2023-09-21 09:29:11,15.08837728,0.0001209,53.2175,30.6992,68.8097,291.3024,0.00010978,1.46e-05,0.0,0 STARLINK-3513,1 51756U 22016AU  23264.39527723  .00001460  00000-0  10978-3 0  9999,2 51756  53.2175  30.6992 0001209  68.8097 291.3024 15.08837728 88868,6917.887,95.438,540.589,538.916,0.0
51756.0,STARLINK-3513,PAYLOAD,2023-09-21 12:39:58,15.0884431,0.0001185,53.2178,30.1047,72.4632,287.649,0.00029137,4.353e-05,0.0,0 STARLINK-3513,1 51756U 22016AU  23264.52775563  .00004353  00000-0  29137-3 0  9992,2 51756  53.2178  30.1047 0001185  72.4632 287.6490 15.08844310 87810,6917.867,95.437,540.552,538.912,0.0
51756.0,STARLINK-3513,PAYLOAD,2023-09-21 15:50:44,15.08855868,0.0001248,53.2179,29.5106,65.5646,294.5476,0.0013111,0.00020649,0.0,0 STARLINK-3513,1 51756U 22016AU  23264.66023935  .00020649  00000-0  13111-2 0  9996,2 51756  53.2179  29.5106 0001248  65.5646 294.5476 15.08855868 88909,6917.832,95.437,540.56,538.834,0.0
51756.0,STARLINK-3513,PAYLOAD,2023-09-22 04:33:49,15.08853001,0.0001435,53.2178,27.1335,74.9632,285.1519,0.0002021,2.931e-05,0.0,0 STARLINK-3513,1 51756U 22016AU  23265.19015686  .00002931  00000-0  20210-3 0  9992,2 51756  53.2178  27.1335 0001435  74.9632 285.1519 15.08853001 88982,6917.841,95.437,540.698,538.713,0.0
51756.0,STARLINK-3513,PAYLOAD,2023-09-22 12:30:45,15.08850874,0.000143,53.219,25.6459,73.5828,286.5321,0.00041075,6.257e-05,0.0,0 STARLINK-3513,1 51756U 22016AU  23265.52135579  .00006257  00000-0  41075-3 0  9990,2 51756  53.2190  25.6459 0001430  73.5828 286.5321 15.08850874 87961,6917.847,95.437,540.701,538.723,0.0
51756.0,STARLINK-3513,PAYLOAD,2023-09-22 14:06:08,15.08851031,0.0001402,53.2185,25.348,69.8251,290.2892,0.00048851,7.498e-05,0.0,0 STARLINK-3513,1 51756U 22016AU  23265.58759564  .00007498  00000-0  48851-3 0  9999,2 51756  53.2185  25.3480 0001402  69.8251 290.2892 15.08851031 87975,6917.847,95.437,540.682,538.742,0.0
51756.0,STARLINK-3513,PAYLOAD,2023-09-23 01:13:50,15.08850599,0.0001451,53.2182,23.2672,76.6492,283.4662,0.00030443,4.562e-05,0.0,0 STARLINK-3513,1 51756U 22016AU  23266.05127351  .00004562  00000-0  30443-3 0  9992,2 51756  53.2182  23.2672 0001451  76.6492 283.4662 15.08850599 89114,6917.848,95.437,540.717,538.709,0.0
51756.0,STARLINK-3513,PAYLOAD,2023-09-23 12:21:31,15.08844605,0.0001521,53.2187,21.1848,77.6204,282.4958,-2.1452e-05,-6.29e-06,0.0,0 STARLINK-3513,1 51756U 22016AU  23266.51495280 -.00000629  00000-0 -21452-4 0  9995,2 51756  53.2187  21.1848 0001521  77.6204 282.4958 15.08844605 88118,6917.866,95.437,540.784,538.679,0.0
51756.0,STARLINK-3513,PAYLOAD,2023-09-23 15:32:17,15.08849936,0.0001312,53.2183,20.5899,74.3403,285.7734,3.6348e-05,2.91e-06,0.0,0 STARLINK-3513,1 51756U 22016AU  23266.64743025  .00000291  00000-0  36348-4 0  9995,2 51756  53.2183  20.5899 0001312  74.3403 285.7734 15.08849936 89207,6917.85,95.437,540.623,538.807,0.0
51756.0,STARLINK-3513,PAYLOAD,2023-09-24 07:26:09,15.08837379,0.0001131,53.219,17.6175,84.5569,275.5553,3.4959e-05,2.69e-06,0.0,0 STARLINK-3513,1 51756U 22016AU  23267.30983624  .00000269  00000-0  34959-4 0  9991,2 51756  53.2190  17.6175 0001131  84.5569 275.5553 15.08837379 89309,6917.888,95.438,540.536,538.971,0.0
51756.0,STARLINK-3513,PAYLOAD,2023-09-24 13:47:42,15.08844091,0.0001421,53.2178,16.427,82.8752,277.2401,7.6847e-05,9.35e-06,0.0,0 STARLINK-3513,1 51756U 22016AU  23267.57479485  .00000935  00000-0  76847-4 0  9997,2 51756  53.2178  16.4270 0001421  82.8752 277.2401 15.08844091 88270,6917.868,95.437,540.716,538.75,0.0
51756.0,STARLINK-3513,PAYLOAD,2023-09-25 13:38:29,15.08848563,0.0001459,53.2188,11.9676,93.7958,266.3201,0.00026572,3.944e-05,0.0,0 STARLINK-3513,1 51756U 22016AU  23268.56839351  .00003944  00000-0  26572-3 0  9991,2 51756  53.2188  11.9676 0001459  93.7958 266.3201 15.08848563 88423,6917.854,95.437,540.729,538.71,0.0
51756.0,STARLINK-3513,PAYLOAD,2023-09-26 11:53:53,15.08836743,0.0001393,53.2183,7.8046,94.1033,266.0118,0.00010491,1.382e-05,0.0,0 STARLINK-3513,1 51756U 22016AU  23269.49576199  .00001382  00000-0  10491-3 0  9999,2 51756  53.2183   7.8046 0001393  94.1033 266.0118 15.08836743 89634,6917.89,95.438,540.719,538.792,0.0
51756.0,STARLINK-3513,PAYLOAD,2023-09-26 16:40:03,15.0884359,0.0001429,53.2184,6.9115,86.4601,273.6554,0.00022323,3.267e-05,0.0,0 STARLINK-3513,1 51756U 22016AU  23269.69448005  .00003267  00000-0  22323-3 0  9996,2 51756  53.2184   6.9115 0001429  86.4601 273.6554 15.08843590 88597,6917.869,95.437,540.723,538.746,0.0
51756.0,STARLINK-3513,PAYLOAD,2023-09-27 13:20:03,15.0885277,0.0001411,53.2186,3.0468,95.1624,264.9529,0.00030533,4.576e-05,0.0,0 STARLINK-3513,1 51756U 22016AU  23270.55559357  .00004576  00000-0  30533-3 0  9992,2 51756  53.2186   3.0468 0001411  95.1624 264.9529 15.08852770 88721,6917.841,95.437,540.682,538.73,0.0
51756.0,STARLINK-3513,PAYLOAD,2023-09-28 11:35:27,15.08838517,0.0001401,53.2178,358.8818,109.1427,250.9717,4.6994e-05,4.6e-06,0.0,0 STARLINK-3513,1 51756U 22016AU  23271.48296159  .00000460  00000-0  46994-4 0  9990,2 51756  53.2178 358.8818 0001401 109.1427 250.9717 15.08838517 89939,6917.885,95.438,540.719,538.781,0.0
